[{"OBJECT_NAME":"OPS 7218 (TRANSIT 16)","OBJECT_ID":"1967-048A","EPOCH":"2026-03-02T19:53:52.172448","MEAN_MOTION":13.50742256,"ECCENTRICITY":0.00182604,"INCLINATION":89.681,"RA_OF_ASC_NODE":351.3886,"ARG_OF_PERICENTER":242.9503,"MEAN_ANOMALY":177.9136,"EPHEMERIS_TYPE":0,"CLASSIFICATION_TYPE":"U","NORAD_CAT_ID":2807,"ELEMENT_SET_NO":999,"REV_AT_EPOCH":89357,"BSTAR":0.00018271788,"MEAN_MOTION_DOT":1.28e-6,"MEAN_MOTION_DDOT":0},{"OBJECT_NAME":"OPS 4947 (TRANSIT 17)","OBJECT_ID":"1967-092A","EPOCH":"2026-03-02T22:49:52.371840","MEAN_MOTION":13.53475886,"ECCENTRICITY":0.004806,"INCLINATION":89.2554,"RA_OF_ASC_NODE":18.3236,"ARG_OF_PERICENTER":5.5154,"MEAN_ANOMALY":61.9325,"EPHEMERIS_TYPE":0,"CLASSIFICATION_TYPE":"U","NORAD_CAT_ID":2965,"ELEMENT_SET_NO":999,"REV_AT_EPOCH":88182,"BSTAR":0.00021984,"MEAN_MOTION_DOT":1.6e-6,"MEAN_MOTION_DDOT":0},{"OBJECT_NAME":"OPS 7034 (TRANSIT 18)","OBJECT_ID":"1968-012A","EPOCH":"2026-03-03T02:48:05.124672","MEAN_MOTION":13.51587611,"ECCENTRICITY":0.0072259,"INCLINATION":90.0216,"RA_OF_ASC_NODE":273.8551,"ARG_OF_PERICENTER":298.5062,"MEAN_ANOMALY":177.9649,"EPHEMERIS_TYPE":0,"CLASSIFICATION_TYPE":"U","NORAD_CAT_ID":3133,"ELEMENT_SET_NO":999,"REV_AT_EPOCH":58004,"BSTAR":0.00022279,"MEAN_MOTION_DOT":1.56e-6,"MEAN_MOTION_DDOT":0},{"OBJECT_NAME":"NNSS 19 (TRANSIT 19)","OBJECT_ID":"1970-067A","EPOCH":"2026-03-02T23:10:54.274944","MEAN_MOTION":13.51336506,"ECCENTRICITY":0.017337,"INCLINATION":90.0048,"RA_OF_ASC_NODE":234.5768,"ARG_OF_PERICENTER":60.8785,"MEAN_ANOMALY":300.9598,"EPHEMERIS_TYPE":0,"CLASSIFICATION_TYPE":"U","NORAD_CAT_ID":4507,"ELEMENT_SET_NO":999,"REV_AT_EPOCH":73305,"BSTAR":0.00017704,"MEAN_MOTION_DOT":1.37e-6,"MEAN_MOTION_DDOT":0},{"OBJECT_NAME":"NNSS 20 (TRANSIT 20)","OBJECT_ID":"1973-081A","EPOCH":"2026-03-03T02:05:51.753984","MEAN_MOTION":13.71472051,"ECCENTRICITY":0.0154029,"INCLINATION":89.8511,"RA_OF_ASC_NODE":253.8322,"ARG_OF_PERICENTER":196.6337,"MEAN_ANOMALY":162.9743,"EPHEMERIS_TYPE":0,"CLASSIFICATION_TYPE":"U","NORAD_CAT_ID":6909,"ELEMENT_SET_NO":999,"REV_AT_EPOCH":81462,"BSTAR":0.00021932,"MEAN_MOTION_DOT":2.25e-6,"MEAN_MOTION_DDOT":0},{"OBJECT_NAME":"TRANSAT","OBJECT_ID":"1977-106A","EPOCH":"2026-03-03T01:01:11.981856","MEAN_MOTION":13.48956925,"ECCENTRICITY":0.0024314,"INCLINATION":89.6395,"RA_OF_ASC_NODE":75.7162,"ARG_OF_PERICENTER":325.7487,"MEAN_ANOMALY":88.0913,"EPHEMERIS_TYPE":0,"CLASSIFICATION_TYPE":"U","NORAD_CAT_ID":10457,"ELEMENT_SET_NO":999,"REV_AT_EPOCH":37826,"BSTAR":0.00012535,"MEAN_MOTION_DOT":8.9e-7,"MEAN_MOTION_DDOT":0},{"OBJECT_NAME":"NOVA 1","OBJECT_ID":"1981-044A","EPOCH":"2026-03-03T02:36:24.626304","MEAN_MOTION":13.23286713,"ECCENTRICITY":0.001261,"INCLINATION":89.8426,"RA_OF_ASC_NODE":90.2156,"ARG_OF_PERICENTER":238.5852,"MEAN_ANOMALY":181.4419,"EPHEMERIS_TYPE":0,"CLASSIFICATION_TYPE":"U","NORAD_CAT_ID":12458,"ELEMENT_SET_NO":999,"REV_AT_EPOCH":16249,"BSTAR":0.0001429,"MEAN_MOTION_DOT":6.9e-7,"MEAN_MOTION_DDOT":0},{"OBJECT_NAME":"NOVA 3","OBJECT_ID":"1984-110A","EPOCH":"2026-03-03T01:44:34.474272","MEAN_MOTION":13.23055795,"ECCENTRICITY":0.0033383,"INCLINATION":90.1128,"RA_OF_ASC_NODE":81.4441,"ARG_OF_PERICENTER":107.0987,"MEAN_ANOMALY":306.993,"EPHEMERIS_TYPE":0,"CLASSIFICATION_TYPE":"U","NORAD_CAT_ID":15362,"ELEMENT_SET_NO":999,"REV_AT_EPOCH":99761,"BSTAR":0.00020936,"MEAN_MOTION_DOT":9.7e-7,"MEAN_MOTION_DDOT":0},{"OBJECT_NAME":"OSCAR 30","OBJECT_ID":"1985-066A","EPOCH":"2026-03-03T04:11:08.776032","MEAN_MOTION":13.36093809,"ECCENTRICITY":0.0166713,"INCLINATION":90.1554,"RA_OF_ASC_NODE":101.1332,"ARG_OF_PERICENTER":216.2172,"MEAN_ANOMALY":212.6802,"EPHEMERIS_TYPE":0,"CLASSIFICATION_TYPE":"U","NORAD_CAT_ID":15935,"ELEMENT_SET_NO":999,"REV_AT_EPOCH":97527,"BSTAR":0.00014958,"MEAN_MOTION_DOT":9.1e-7,"MEAN_MOTION_DDOT":0},{"OBJECT_NAME":"OSCAR 24","OBJECT_ID":"1985-066B","EPOCH":"2026-03-03T04:01:16.848768","MEAN_MOTION":13.35951559,"ECCENTRICITY":0.0167552,"INCLINATION":90.1691,"RA_OF_ASC_NODE":93.6947,"ARG_OF_PERICENTER":222.8108,"MEAN_ANOMALY":207.3055,"EPHEMERIS_TYPE":0,"CLASSIFICATION_TYPE":"U","NORAD_CAT_ID":15936,"ELEMENT_SET_NO":999,"REV_AT_EPOCH":97717,"BSTAR":0.00016249,"MEAN_MOTION_DOT":9.8e-7,"MEAN_MOTION_DDOT":0},{"OBJECT_NAME":"POLAR BEAR","OBJECT_ID":"1986-088A","EPOCH":"2026-03-02T21:03:58.687776","MEAN_MOTION":13.75268612,"ECCENTRICITY":0.0037745,"INCLINATION":89.6249,"RA_OF_ASC_NODE":180.5863,"ARG_OF_PERICENTER":236.961,"MEAN_ANOMALY":243.2772,"EPHEMERIS_TYPE":0,"CLASSIFICATION_TYPE":"U","NORAD_CAT_ID":17070,"ELEMENT_SET_NO":999,"REV_AT_EPOCH":97080,"BSTAR":0.00010496,"MEAN_MOTION_DOT":1.12e-6,"MEAN_MOTION_DDOT":0},{"OBJECT_NAME":"OSCAR 27","OBJECT_ID":"1987-080A","EPOCH":"2026-03-03T01:03:22.518432","MEAN_MOTION":13.44923233,"ECCENTRICITY":0.0103581,"INCLINATION":90.3648,"RA_OF_ASC_NODE":82.2386,"ARG_OF_PERICENTER":355.7424,"MEAN_ANOMALY":4.2831,"EPHEMERIS_TYPE":0,"CLASSIFICATION_TYPE":"U","NORAD_CAT_ID":18361,"ELEMENT_SET_NO":999,"REV_AT_EPOCH":88636,"BSTAR":0.00017656,"MEAN_MOTION_DOT":1.15e-6,"MEAN_MOTION_DDOT":0},{"OBJECT_NAME":"OSCAR 29","OBJECT_ID":"1987-080B","EPOCH":"2026-03-02T15:31:43.017024","MEAN_MOTION":13.44463285,"ECCENTRICITY":0.0106013,"INCLINATION":90.3657,"RA_OF_ASC_NODE":82.6894,"ARG_OF_PERICENTER":20.0617,"MEAN_ANOMALY":99.3409,"EPHEMERIS_TYPE":0,"CLASSIFICATION_TYPE":"U","NORAD_CAT_ID":18362,"ELEMENT_SET_NO":999,"REV_AT_EPOCH":88583,"BSTAR":0.00014076,"MEAN_MOTION_DOT":9.3e-7,"MEAN_MOTION_DDOT":0},{"OBJECT_NAME":"OSCAR 23","OBJECT_ID":"1988-033A","EPOCH":"2026-03-02T22:19:25.728096","MEAN_MOTION":13.278025,"ECCENTRICITY":0.0188265,"INCLINATION":90.3281,"RA_OF_ASC_NODE":18.889,"ARG_OF_PERICENTER":317.9119,"MEAN_ANOMALY":102.8925,"EPHEMERIS_TYPE":0,"CLASSIFICATION_TYPE":"U","NORAD_CAT_ID":19070,"ELEMENT_SET_NO":999,"REV_AT_EPOCH":83317,"BSTAR":0.00016679,"MEAN_MOTION_DOT":8.9e-7,"MEAN_MOTION_DDOT":0},{"OBJECT_NAME":"OSCAR 32","OBJECT_ID":"1988-033B","EPOCH":"2026-03-02T21:29:12.236928","MEAN_MOTION":13.27967233,"ECCENTRICITY":0.0186341,"INCLINATION":90.3286,"RA_OF_ASC_NODE":19.0242,"ARG_OF_PERICENTER":304.719,"MEAN_ANOMALY":107.622,"EPHEMERIS_TYPE":0,"CLASSIFICATION_TYPE":"U","NORAD_CAT_ID":19071,"ELEMENT_SET_NO":999,"REV_AT_EPOCH":83329,"BSTAR":0.00011846,"MEAN_MOTION_DOT":6.5e-7,"MEAN_MOTION_DDOT":0},{"OBJECT_NAME":"NOVA 2","OBJECT_ID":"1988-052A","EPOCH":"2026-03-03T00:01:53.984928","MEAN_MOTION":13.22946763,"ECCENTRICITY":0.0031363,"INCLINATION":89.9781,"RA_OF_ASC_NODE":78.1362,"ARG_OF_PERICENTER":149.3608,"MEAN_ANOMALY":238.643,"EPHEMERIS_TYPE":0,"CLASSIFICATION_TYPE":"U","NORAD_CAT_ID":19223,"ELEMENT_SET_NO":999,"REV_AT_EPOCH":82009,"BSTAR":0.0002234,"MEAN_MOTION_DOT":1.03e-6,"MEAN_MOTION_DDOT":0},{"OBJECT_NAME":"OSCAR 25","OBJECT_ID":"1988-074A","EPOCH":"2026-03-02T22:25:20.661024","MEAN_MOTION":13.42640172,"ECCENTRICITY":0.0096955,"INCLINATION":90.0408,"RA_OF_ASC_NODE":20.5139,"ARG_OF_PERICENTER":18.66,"MEAN_ANOMALY":43.1365,"EPHEMERIS_TYPE":0,"CLASSIFICATION_TYPE":"U","NORAD_CAT_ID":19419,"ELEMENT_SET_NO":999,"REV_AT_EPOCH":83716,"BSTAR":0.00018105,"MEAN_MOTION_DOT":1.15e-6,"MEAN_MOTION_DDOT":0}]
